ONEWEB-0707             
1 61612U 24188U   25172.58238000  .00000631  00000+0  17702-2 0  9990
2 61612  87.8819 108.1480 0002597  71.8046 288.3364 13.10373158 36094
ONEWEB-0708             
1 61613U 24188V   25172.52426470 -.00000064  00000+0 -21915-3 0  9999
2 61613  87.8874 108.1695 0002425  60.9309 299.2060 13.10369672 36062
